ONEWEB-0616             
1 55157U 23004T   24070.83170807 -.00000002  00000+0 -38909-4 0  9995
2 55157  87.9264 170.6444 0001938  68.2481 291.8857 13.17650843 58615
ONEWEB-0617             
1 55158U 23004U   24070.86532766 -.00001253  00000+0 -35724-2 0  9994
2 55158  87.9031 185.7855 0001860 123.8046 236.3259 13.11420058 57302
ONEWEB-0618             
1 55159U 23004V   24071.20616376  .00000382  00000+0  14992-3 0  9999
2 55159  86.9072 128.0957 0011533 235.4036 124.6069 14.26799791 61377
ONEWEB-0619             
1 55160U 23004W   24070.78740918 -.00000015  00000+0 -71569-4 0  9992
2 55160  87.9264 170.6292 0002446  93.8568 266.2843 13.17650825 58504
ONEWEB-0620             
1 55161U 23004X   24071.54712763  .00000318  00000+0  86023-3 0  9999
2 55161  87.9033 185.6588 0001970 123.5024 236.6292 13.11414205 57357
ONEWEB-0621             
1 55162U 23004Y   24070.81011918 -.00000554  00000+0 -15979-2 0  9998
2 55162  87.9029 185.7757 0002220 103.7199 256.4176 13.11415499 57238
ONEWEB-0622             
1 55163U 23004Z   24070.81662515 -.00000386  00000+0 -11242-2 0  9996
2 55163  87.9033 185.7892 0002473 126.4449 233.6908 13.11417999 57220
ONEWEB-0623             
1 55164U 23004AA  24071.54202710  .00000007  00000+0 -15140-4 0  9997
2 55164  87.9264 170.5335 0002708 116.6847 243.4562 13.17650822 58591
